NORAD_CAT_ID,OBJECT_NAME,OBJECT_TYPE,EPOCH,MEAN_MOTION,ECCENTRICITY,INCLINATION,RA_OF_ASC_NODE,ARG_OF_PERICENTER,MEAN_ANOMALY,BSTAR,MEAN_MOTION_DOT,MEAN_MOTION_DDOT,TLE_LINE0,TLE_LINE1,TLE_LINE2,SEMIMAJOR_AXIS,PERIOD,APOGEE,PERIGEE,DECAYED
52619.0,STARLINK-3741,PAYLOAD,2023-01-22 15:08:39,15.08847355,0.0002973,53.2136,356.0361,74.3824,285.7496,0.00086763,0.0001355,0.0,0 STARLINK-3741,1 52619U 22052X   23022.63101595  .00013550  00000-0  86763-3 0  9990,2 52619  53.2136 356.0361 0002973  74.3824 285.7496 15.08847355 38950,6917.858,95.437,541.78,537.6659999999999,0.0
52619.0,STARLINK-3741,PAYLOAD,2023-01-23 07:02:31,15.08832647,0.000223,53.2123,353.06300000000005,79.5105,280.6138,0.00024052,3.541e-05,0.0,0 STARLINK-3741,1 52619U 22052X   23023.29341825  .00003541  00000-0  24052-3 0  9997,2 52619  53.2123 353.0630 0002230  79.5105 280.6138 15.08832647 39054,6917.903,95.438,541.311,538.225,0.0
52619.0,STARLINK-3741,PAYLOAD,2023-01-24 06:53:18,15.08855011,0.0001696,53.2137,348.6019,91.5983,268.5203,0.00092831,0.00014523,0.0,0 STARLINK-3741,1 52619U 22052X   23024.28701751  .00014523  00000-0  92831-3 0  9997,2 52619  53.2137 348.6019 0001696  91.5983 268.5203 15.08855011 39208,6917.835,95.437,540.873,538.526,0.0
52619.0,STARLINK-3741,PAYLOAD,2023-01-24 14:50:14,15.08849296,0.0001764999999999,53.2146,347.1161,85.0497,275.0696,0.00056835,8.771e-05,0.0,0 STARLINK-3741,1 52619U 22052X   23024.61821873  .00008771  00000-0  56835-3 0  9994,2 52619  53.2146 347.1161 0001765  85.0497 275.0696 15.08849296 39257,6917.852,95.437,540.938,538.496,0.0
52619.0,STARLINK-3741,PAYLOAD,2023-01-25 03:33:19,15.0884645,0.0001433,53.2143,344.7334,97.4654,262.6501,0.00039001,5.926e-05,0.0,0 STARLINK-3741,1 52619U 22052X   23025.14813719  .00005926  00000-0  39001-3 0  9998,2 52619  53.2143 344.7334 0001433  97.4654 262.6501 15.08846450 39338,6917.861,95.437,540.717,538.734,0.0
52619.0,STARLINK-3741,PAYLOAD,2023-01-25 06:44:05,15.08848617,0.0001652,53.2141,344.1389,94.8051,265.3129,0.00026916,3.999e-05,0.0,0 STARLINK-3741,1 52619U 22052X   23025.28061479  .00003999  00000-0  26916-3 0  9990,2 52619  53.2141 344.1389 0001652  94.8051 265.3129 15.08848617 38977,6917.854,95.437,540.862,538.576,0.0
52619.0,STARLINK-3741,PAYLOAD,2023-01-25 14:41:01,15.08838616,0.0001706,53.2145,342.6535,87.8851,272.2336,7.1748e-05,8.54e-06,0.0,0 STARLINK-3741,1 52619U 22052X   23025.61182075  .00000854  00000-0  71748-4 0  9994,2 52619  53.2145 342.6535 0001706  87.8851 272.2336 15.08838616 39401,6917.885,95.438,540.93,538.569,0.0
52619.0,STARLINK-3741,PAYLOAD,2023-01-26 03:24:06,15.0884608,0.0001696999999999,53.2146,340.2741,90.836,269.2826,0.00022044,3.223e-05,0.0,0 STARLINK-3741,1 52619U 22052X   23026.14173872  .00003223  00000-0  22044-3 0  9995,2 52619  53.2146 340.2741 0001697  90.8360 269.2826 15.08846080 39104,6917.861999999999,95.437,540.901,538.553,0.0
52619.0,STARLINK-3741,PAYLOAD,2023-01-27 01:39:30,15.08844029,0.0001699999999999,53.2145,336.1102,91.8963,268.2224,0.00018884,2.719e-05,0.0,0 STARLINK-3741,1 52619U 22052X   23027.06909904  .00002719  00000-0  18884-3 0  9996,2 52619  53.2145 336.1102 0001700  91.8963 268.2224 15.08844029 39622,6917.868,95.437,540.909,538.557,0.0
52619.0,STARLINK-3741,PAYLOAD,2023-01-27 06:25:39,15.08847123,0.0001751999999999,53.2139,335.2177,98.4095,261.7096,0.00020657,3.002e-05,0.0,0 STARLINK-3741,1 52619U 22052X   23027.26781643  .00003002  00000-0  20657-3 0  9993,2 52619  53.2139 335.2177 0001752  98.4095 261.7096 15.08847123 39277,6917.859,95.437,540.936,538.512,0.0
52619.0,STARLINK-3741,PAYLOAD,2023-01-28 03:05:40,15.0884677,0.0001347,53.2133,331.3555,93.8485,266.2661,0.00021527,3.14e-05,0.0,0 STARLINK-3741,1 52619U 22052X   23028.12893570  .00003140  00000-0  21527-3 0  9992,2 52619  53.2133 331.3555 0001347  93.8485 266.2661 15.08846770 39781,6917.86,95.437,540.6569999999999,538.793,0.0
52619.0,STARLINK-3741,PAYLOAD,2023-01-28 04:41:02,15.08851474,0.0001456,53.2136,331.0573,95.5468,264.569,0.00020181,2.926e-05,0.0,0 STARLINK-3741,1 52619U 22052X   23028.19517292  .00002926  00000-0  20181-3 0  9999,2 52619  53.2136 331.0573 0001456  95.5468 264.5690 15.08851474 39412,6917.845,95.437,540.718,538.703,0.0
52619.0,STARLINK-3741,PAYLOAD,2023-01-28 20:34:54,15.08839184,0.0001461,53.2131,328.0819,100.0572,260.0585,-3.303e-05,-8.14e-06,0.0,0 STARLINK-3741,1 52619U 22052X   23028.85757653 -.00000814  00000-0 -33030-4 0  9993,2 52619  53.2131 328.0819 0001461 100.0572 260.0585 15.08839184 39519,6917.883,95.438,540.759,538.737,0.0
52619.0,STARLINK-3741,PAYLOAD,2023-01-29 02:56:27,15.08839553,0.0001411,53.2134,326.893,99.8222,260.2929,-2.6782e-06,-3.31e-06,0.0,0 STARLINK-3741,1 52619U 22052X   23029.12253660 -.00000331  00000-0 -26782-5 0  9994,2 52619  53.2134 326.8930 0001411  99.8222 260.2929 15.08839553 39934,6917.882,95.438,540.723,538.771,0.0
52619.0,STARLINK-3741,PAYLOAD,2023-01-29 20:25:43,15.08819856,0.0001326,53.2136,323.6216,86.4254,273.689,-0.00025986,-4.419e-05,0.0,0 STARLINK-3741,1 52619U 22052X   23029.85119525 -.00004419  00000-0 -25986-3 0  9999,2 52619  53.2136 323.6216 0001326  86.4254 273.6890 15.08819856 39669,6917.942,95.439,540.724,538.89,0.0
52619.0,STARLINK-3741,PAYLOAD,2023-01-30 01:11:52,15.08823718,0.0001354,53.2134,322.7293,89.3793,270.7354,-0.00016506,-2.913e-05,0.0,0 STARLINK-3741,1 52619U 22052X   23030.04991540 -.00002913  00000-0 -16506-3 0  9992,2 52619  53.2134 322.7293 0001354  89.3793 270.7354 15.08823718 40075,6917.93,95.439,540.732,538.858,0.0
52619.0,STARLINK-3741,PAYLOAD,2023-01-30 13:54:57,15.08832471,0.0001279,53.2136,320.3514,88.5855,271.5284,3.5844e-05,2.83e-06,0.0,0 STARLINK-3741,1 52619U 22052X   23030.57983558  .00000283  00000-0  35844-4 0  9993,2 52619  53.2136 320.3514 0001279  88.5855 271.5284 15.08832471 39775,6917.903,95.438,540.653,538.884,0.0
52619.0,STARLINK-3741,PAYLOAD,2023-01-30 18:41:07,15.08839883,0.0001386,53.2126,319.4583,86.416,273.6991,0.00053903,8.301e-05,0.0,0 STARLINK-3741,1 52619U 22052X   23030.77855910  .00008301  00000-0  53903-3 0  9999,2 52619  53.2126 319.4583 0001386  86.4160 273.6991 15.08839883 40183,6917.881,95.438,540.705,538.787,0.0
52619.0,STARLINK-3741,PAYLOAD,2023-01-30 20:16:30,15.08843028,0.000139,53.2127,319.1611,87.5938,272.5213,0.00078215,0.00012183,0.0,0 STARLINK-3741,1 52619U 22052X   23030.84480004  .00012183  00000-0  78215-3 0  9991,2 52619  53.2127 319.1611 0001390  87.5938 272.5213 15.08843028 39812,6917.871,95.437,540.698,538.775,0.0
52619.0,STARLINK-3741,PAYLOAD,2023-01-31 04:13:26,15.08864442,0.0001377,53.2126,317.6746,91.9561,268.1589,0.0013419,0.00021147,0.0,0 STARLINK-3741,1 52619U 22052X   23031.17599627  .00021147  00000-0  13419-2 0  9994,2 52619  53.2126 317.6746 0001377  91.9561 268.1589 15.08864442 40248,6917.806,95.436,540.623,538.718,0.0
52619.0,STARLINK-3741,PAYLOAD,2023-01-31 13:45:44,15.08862335,0.0001481,53.2125,315.8905,92.8518,267.2644,0.0007691,0.00011981,0.0,0 STARLINK-3741,1 52619U 22052X   23031.57343207  .00011981  00000-0  76910-3 0  9990,2 52619  53.2125 315.8905 0001481  92.8518 267.2644 15.08862335 39926,6917.812,95.436,540.702,538.653,0.0
52619.0,STARLINK-3741,PAYLOAD,2023-01-31 18:31:53,15.0886515,0.0001402,53.2125,314.9977,92.0745,268.0407,0.00063883,9.901e-05,0.0,0 STARLINK-3741,1 52619U 22052X   23031.77214929  .00009901  00000-0  63883-3 0  9994,2 52619  53.2125 314.9977 0001402  92.0745 268.0407 15.08865150 40333,6917.804,95.436,540.638,538.699,0.0
52619.0,STARLINK-3741,PAYLOAD,2023-01-31 20:07:16,15.08865742,0.0001469,53.2127,314.7004,97.0792,263.0368,0.00065012,0.00010081,0.0,0 STARLINK-3741,1 52619U 22052X   23031.83838802  .00010081  00000-0  65012-3 0  9990,2 52619  53.2127 314.7004 0001469  97.0792 263.0368 15.08865742 39969,6917.802,95.436,540.683,538.65,0.0
52619.0,STARLINK-3741,PAYLOAD,2023-02-01 04:04:11,15.08883852,0.0001416,53.2125,313.2137,86.607,273.5084,0.0011703,0.00018409,0.0,0 STARLINK-3741,1 52619U 22052X   23032.16957947  .00018409  00000-0  11703-2 0  9998,2 52619  53.2125 313.2137 0001416  86.6070 273.5084 15.08883852 40395,6917.746,95.435,540.591,538.632,0.0
52619.0,STARLINK-3741,PAYLOAD,2023-02-02 03:54:58,15.0886361,0.0001521,53.2134,308.7532,98.4371,261.6793,0.00075078,0.00011689,0.0,0 STARLINK-3741,1 52619U 22052X   23033.16317623  .00011689  00000-0  75078-3 0  9999,2 52619  53.2134 308.7532 0001521  98.4371 261.6793 15.08863610 40165,6917.808,95.436,540.725,538.621,0.0
52619.0,STARLINK-3741,PAYLOAD,2023-02-03 03:45:45,15.08858074,0.0001276,53.2131,304.2926,91.2858,268.828,0.0011432,0.00017962,0.0,0 STARLINK-3741,1 52619U 22052X   23034.15677540  .00017962  00000-0  11432-2 0  9999,2 52619  53.2131 304.2926 0001276  91.2858 268.8280 15.08858074 40313,6917.825,95.436,540.573,538.807,0.0
52619.0,STARLINK-3741,PAYLOAD,2023-02-03 18:04:14,15.08844238,0.0002438,53.2124,301.6146,95.0297,265.0973,0.00091209,0.0001426,0.0,0 STARLINK-3741,1 52619U 22052X   23034.75294229  .00014260  00000-0  91209-3 0  9993,2 52619  53.2124 301.6146 0002438  95.0297 265.0973 15.08844238 40786,6917.867,95.437,541.419,538.046,0.0
52619.0,STARLINK-3741,PAYLOAD,2023-02-04 17:55:01,15.08843784,0.0002003,53.2091,297.1559,91.4971,268.625,0.00046908,7.186e-05,0.0,0 STARLINK-3741,1 52619U 22052X   23035.74654369  .00007186  00000-0  46908-3 0  9993,2 52619  53.2091 297.1559 0002003  91.4971 268.6250 15.08843784 40932,6917.869,95.437,541.119,538.348,0.0
52619.0,STARLINK-3741,PAYLOAD,2023-02-04 22:41:10,15.08852148,0.0001275,53.2128,296.264,82.6681,277.4456,0.00062572,9.688e-05,0.0,0 STARLINK-3741,1 52619U 22052X   23035.94526110  .00009688  00000-0  62572-3 0  9991,2 52619  53.2128 296.2640 0001275  82.6681 277.4456 15.08852148 40585,6917.843,95.437,540.59,538.826,0.0
52619.0,STARLINK-3741,PAYLOAD,2023-02-05 03:27:19,15.08861662,0.0001338,53.2128,295.3711,82.7541,277.3603,0.0008152,0.00012717,0.0,0 STARLINK-3741,1 52619U 22052X   23036.14397796  .00012717  00000-0  81520-3 0  9991,2 52619  53.2128 295.3711 0001338  82.7541 277.3603 15.08861662 40999,6917.814,95.436,540.605,538.754,0.0
